<?xml version="1.0" encoding="UTF-8"?>
<ndm xmlns:xsi="http://www.w3.org/2001/XMLSchema-instance" xsi:noNamespaceSchemaLocation="https://sanaregistry.org/r/ndmxml_unqualified/ndmxml-2.0.0-master-2.0.xsd">
<omm id="CCSDS_OMM_VERS" version="2.0">
<header><CREATION_DATE/><ORIGINATOR/></header><body><segment><metadata><OBJECT_NAME>IRIDIUM 57 [-]</OBJECT_NAME><OBJECT_ID>1998-019B</OBJECT_ID><CENTER_NAME>EARTH</CENTER_NAME><REF_FRAME>TEME</REF_FRAME><TIME_SYSTEM>UTC</TIME_SYSTEM><MEAN_ELEMENT_THEORY>SGP4</MEAN_ELEMENT_THEORY></metadata><data><meanElements><EPOCH>2023-10-08T21:01:39.824832</EPOCH><MEAN_MOTION>14.34929056</MEAN_MOTION><ECCENTRICITY>.0002129</ECCENTRICITY><INCLINATION>86.3983</INCLINATION><RA_OF_ASC_NODE>43.7405</RA_OF_ASC_NODE><ARG_OF_PERICENTER>92.0375</ARG_OF_PERICENTER><MEAN_ANOMALY>268.1065</MEAN_ANOMALY></meanElements><tleParameters><EPHEMERIS_TYPE>0</EPHEMERIS_TYPE><CLASSIFICATION_TYPE>U</CLASSIFICATION_TYPE><NORAD_CAT_ID>25273</NORAD_CAT_ID><ELEMENT_SET_NO>999</ELEMENT_SET_NO><REV_AT_EPOCH>33623</REV_AT_EPOCH><BSTAR>.3333E-3</BSTAR><MEAN_MOTION_DOT>.967E-5</MEAN_MOTION_DOT><MEAN_MOTION_DDOT>0</MEAN_MOTION_DDOT></tleParameters></data></segment></body></omm>
<omm id="CCSDS_OMM_VERS" version="2.0">
<header><CREATION_DATE/><ORIGINATOR/></header><body><segment><metadata><OBJECT_NAME>IRIDIUM 63 [-]</OBJECT_NAME><OBJECT_ID>1998-021B</OBJECT_ID><CENTER_NAME>EARTH</CENTER_NAME><REF_FRAME>TEME</REF_FRAME><TIME_SYSTEM>UTC</TIME_SYSTEM><MEAN_ELEMENT_THEORY>SGP4</MEAN_ELEMENT_THEORY></metadata><data><meanElements><EPOCH>2023-10-08T17:06:27.088128</EPOCH><MEAN_MOTION>14.35436650</MEAN_MOTION><ECCENTRICITY>.0002393</ECCENTRICITY><INCLINATION>86.4019</INCLINATION><RA_OF_ASC_NODE>340.7834</RA_OF_ASC_NODE><ARG_OF_PERICENTER>94.1919</ARG_OF_PERICENTER><MEAN_ANOMALY>265.9551</MEAN_ANOMALY></meanElements><tleParameters><EPHEMERIS_TYPE>0</EPHEMERIS_TYPE><CLASSIFICATION_TYPE>U</CLASSIFICATION_TYPE><NORAD_CAT_ID>25286</NORAD_CAT_ID><ELEMENT_SET_NO>999</ELEMENT_SET_NO><REV_AT_EPOCH>33523</REV_AT_EPOCH><BSTAR>.27178E-3</BSTAR><MEAN_MOTION_DOT>.8E-5</MEAN_MOTION_DOT><MEAN_MOTION_DDOT>0</MEAN_MOTION_DDOT></tleParameters></data></segment></body></omm>
<omm id="CCSDS_OMM_VERS" version="2.0">
<header><CREATION_DATE/><ORIGINATOR/></header><body><segment><metadata><OBJECT_NAME>IRIDIUM 69 [-]</OBJECT_NAME><OBJECT_ID>1998-026A</OBJECT_ID><CENTER_NAME>EARTH</CENTER_NAME><REF_FRAME>TEME</REF_FRAME><TIME_SYSTEM>UTC</TIME_SYSTEM><MEAN_ELEMENT_THEORY>SGP4</MEAN_ELEMENT_THEORY></metadata><data><meanElements><EPOCH>2023-10-08T19:42:51.971904</EPOCH><MEAN_MOTION>14.39605564</MEAN_MOTION><ECCENTRICITY>.0000575</ECCENTRICITY><INCLINATION>86.4038</INCLINATION><RA_OF_ASC_NODE>355.8442</RA_OF_ASC_NODE><ARG_OF_PERICENTER>179.0816</ARG_OF_PERICENTER><MEAN_ANOMALY>181.0384</MEAN_ANOMALY></meanElements><tleParameters><EPHEMERIS_TYPE>0</EPHEMERIS_TYPE><CLASSIFICATION_TYPE>U</CLASSIFICATION_TYPE><NORAD_CAT_ID>25319</NORAD_CAT_ID><ELEMENT_SET_NO>999</ELEMENT_SET_NO><REV_AT_EPOCH>33420</REV_AT_EPOCH><BSTAR>.36286E-3</BSTAR><MEAN_MOTION_DOT>.1152E-4</MEAN_MOTION_DOT><MEAN_MOTION_DDOT>0</MEAN_MOTION_DDOT></tleParameters></data></segment></body></omm>
<omm id="CCSDS_OMM_VERS" version="2.0">
<header><CREATION_DATE/><ORIGINATOR/></header><body><segment><metadata><OBJECT_NAME>IRIDIUM 73 [-]</OBJECT_NAME><OBJECT_ID>1998-032C</OBJECT_ID><CENTER_NAME>EARTH</CENTER_NAME><REF_FRAME>TEME</REF_FRAME><TIME_SYSTEM>UTC</TIME_SYSTEM><MEAN_ELEMENT_THEORY>SGP4</MEAN_ELEMENT_THEORY></metadata><data><meanElements><EPOCH>2023-10-09T02:57:25.911648</EPOCH><MEAN_MOTION>14.50056899</MEAN_MOTION><ECCENTRICITY>.0001639</ECCENTRICITY><INCLINATION>86.4388</INCLINATION><RA_OF_ASC_NODE>308.3976</RA_OF_ASC_NODE><ARG_OF_PERICENTER>90.3309</ARG_OF_PERICENTER><MEAN_ANOMALY>269.8083</MEAN_ANOMALY></meanElements><tleParameters><EPHEMERIS_TYPE>0</EPHEMERIS_TYPE><CLASSIFICATION_TYPE>U</CLASSIFICATION_TYPE><NORAD_CAT_ID>25344</NORAD_CAT_ID><ELEMENT_SET_NO>999</ELEMENT_SET_NO><REV_AT_EPOCH>34139</REV_AT_EPOCH><BSTAR>.26021E-3</BSTAR><MEAN_MOTION_DOT>.1028E-4</MEAN_MOTION_DOT><MEAN_MOTION_DDOT>0</MEAN_MOTION_DDOT></tleParameters></data></segment></body></omm>
<omm id="CCSDS_OMM_VERS" version="2.0">
<header><CREATION_DATE/><ORIGINATOR/></header><body><segment><metadata><OBJECT_NAME>IRIDIUM 82 [-]</OBJECT_NAME><OBJECT_ID>1998-051A</OBJECT_ID><CENTER_NAME>EARTH</CENTER_NAME><REF_FRAME>TEME</REF_FRAME><TIME_SYSTEM>UTC</TIME_SYSTEM><MEAN_ELEMENT_THEORY>SGP4</MEAN_ELEMENT_THEORY></metadata><data><meanElements><EPOCH>2023-10-08T20:18:01.624032</EPOCH><MEAN_MOTION>15.02756052</MEAN_MOTION><ECCENTRICITY>.0148439</ECCENTRICITY><INCLINATION>86.3966</INCLINATION><RA_OF_ASC_NODE>44.3885</RA_OF_ASC_NODE><ARG_OF_PERICENTER>62.9503</ARG_OF_PERICENTER><MEAN_ANOMALY>298.6790</MEAN_ANOMALY></meanElements><tleParameters><EPHEMERIS_TYPE>0</EPHEMERIS_TYPE><CLASSIFICATION_TYPE>U</CLASSIFICATION_TYPE><NORAD_CAT_ID>25467</NORAD_CAT_ID><ELEMENT_SET_NO>999</ELEMENT_SET_NO><REV_AT_EPOCH>33050</REV_AT_EPOCH><BSTAR>.10379E-2</BSTAR><MEAN_MOTION_DOT>.17718E-3</MEAN_MOTION_DOT><MEAN_MOTION_DDOT>0</MEAN_MOTION_DDOT></tleParameters></data></segment></body></omm>
<omm id="CCSDS_OMM_VERS" version="2.0">
<header><CREATION_DATE/><ORIGINATOR/></header><body><segment><metadata><OBJECT_NAME>IRIDIUM 2 [-]</OBJECT_NAME><OBJECT_ID>1998-066A</OBJECT_ID><CENTER_NAME>EARTH</CENTER_NAME><REF_FRAME>TEME</REF_FRAME><TIME_SYSTEM>UTC</TIME_SYSTEM><MEAN_ELEMENT_THEORY>SGP4</MEAN_ELEMENT_THEORY></metadata><data><meanElements><EPOCH>2023-10-08T21:31:59.077920</EPOCH><MEAN_MOTION>15.41374193</MEAN_MOTION><ECCENTRICITY>.000417</ECCENTRICITY><INCLINATION>85.5158</INCLINATION><RA_OF_ASC_NODE>102.3338</RA_OF_ASC_NODE><ARG_OF_PERICENTER>203.8277</ARG_OF_PERICENTER><MEAN_ANOMALY>156.2784</MEAN_ANOMALY></meanElements><tleParameters><EPHEMERIS_TYPE>0</EPHEMERIS_TYPE><CLASSIFICATION_TYPE>U</CLASSIFICATION_TYPE><NORAD_CAT_ID>25527</NORAD_CAT_ID><ELEMENT_SET_NO>999</ELEMENT_SET_NO><REV_AT_EPOCH>36864</REV_AT_EPOCH><BSTAR>.11599E-2</BSTAR><MEAN_MOTION_DOT>.48663E-3</MEAN_MOTION_DOT><MEAN_MOTION_DDOT>0</MEAN_MOTION_DDOT></tleParameters></data></segment></body></omm>
</ndm>
