IRIDIUM 57 [-]          
1 25273U 98019B   23281.87615538  .00000967  00000+0  33330-3 0  9991
2 25273  86.3983  43.7405 0002129  92.0375 268.1065 14.34929056336239
IRIDIUM 63 [-]          
1 25286U 98021B   23281.71281352  .00000800  00000+0  27178-3 0  9993
2 25286  86.4019 340.7834 0002393  94.1919 265.9551 14.35436650335238
IRIDIUM 69 [-]          
1 25319U 98026A   23281.82143486  .00001152  00000+0  36286-3 0  9993
2 25319  86.4038 355.8442 0000575 179.0816 181.0384 14.39605564334201
IRIDIUM 73 [-]          
1 25344U 98032C   23282.12321657  .00001028  00000+0  26021-3 0  9998
2 25344  86.4388 308.3976 0001639  90.3309 269.8083 14.50056899341399
IRIDIUM 82 [-]          
1 25467U 98051A   23281.84585213  .00017718  00000+0  10379-2 0  9994
2 25467  86.3966  44.3885 0148439  62.9503 298.6790 15.02756052330505
IRIDIUM 2 [-]           
1 25527U 98066A   23281.89721155  .00048663  00000+0  11599-2 0  9997
2 25527  85.5158 102.3338 0004170 203.8277 156.2784 15.41374193368644
